{
    "links": {
        "self": "http://www.neowsapp.com/rest/v1/neo/3883087?api_key=iIulBulltgU6a56xZRHN4H3l9WmuAYTsLGpBGhQ2"
    },
    "id": "3883087",
    "neo_reference_id": "3883087",
    "name": "(2019 UE7)",
    "designation": "2019 UE7",
    "nasa_jpl_url": "http://ssd.jpl.nasa.gov/sbdb.cgi?sstr=3883087",
    "absolute_magnitude_h": 22.4,
    "estimated_diameter": {
        "kilometers": {
            "estimated_diameter_min": 0.0880146521,
            "estimated_diameter_max": 0.1968067451
        },
        "meters": {
            "estimated_diameter_min": 88.0146520901,
            "estimated_diameter_max": 196.8067450894
        },
        "miles": {
            "estimated_diameter_min": 0.0546897524,
            "estimated_diameter_max": 0.122290004
        },
        "feet": {
            "estimated_diameter_min": 288.7619911632,
            "estimated_diameter_max": 645.6914415591
        }
    },
    "is_potentially_hazardous_asteroid": false,
    "close_approach_data": [
        {
            "close_approach_date": "2019-09-22",
            "close_approach_date_full": "2019-Sep-22 13:29",
            "epoch_date_close_approach": 1569158940000,
            "relative_velocity": {
                "kilometers_per_second": "15.6319656554",
                "kilometers_per_hour": "56275.0763595761",
                "miles_per_hour": "34967.1439746488"
            },
            "miss_distance": {
                "astronomical": "0.1780603857",
                "lunar": "69.2654900373",
                "kilometers": "26637454.432098459",
                "miles": "16551746.6694143742"
            },
            "orbiting_body": "Earth"
        }
    ],
    "orbital_data": {
        "orbit_id": "2",
        "orbit_determination_date": "2019-10-31 07:12:03",
        "first_observation_date": "2019-10-24",
        "last_observation_date": "2019-10-31",
        "data_arc_in_days": 7,
        "observations_used": 27,
        "orbit_uncertainty": "9",
        "minimum_orbit_intersection": ".0369677",
        "jupiter_tisserand_invariant": "3.310",
        "epoch_osculation": "2458781.5",
        "eccentricity": ".7005407379372691",
        "semi_major_axis": "2.173579259290802",
        "inclination": "6.918674603717572",
        "ascending_node_longitude": "225.8400597173989",
        "orbital_period": "1170.473670584468",
        "perihelion_distance": ".6508984410220807",
        "perihelion_argument": "63.60709210476916",
        "aphelion_distance": "3.696260077559523",
        "perihelion_time": "2458705.984911963832",
        "mean_anomaly": "23.2260087315297",
        "mean_motion": ".3075677899018748",
        "equinox": "J2000",
        "orbit_class": {
            "orbit_class_type": "APO",
            "orbit_class_description": "Near-Earth asteroid orbits which cross the Earth’s orbit similar to that of 1862 Apollo",
            "orbit_class_range": "a (semi-major axis) > 1.0 AU; q (perihelion) < 1.017 AU"
        }
    },
    "is_sentry_object": false
}